CTC1_L_00631001-01
1 10000U 24113AT  26075.70039352  .00000000  00000+0  00000-0 0  9990
2 10000  65.0000   0.0000 0000000   0.0000   0.0000  4.14196107    18
CTC1_L_00631001-02
1 10001U 24019BV  26075.70039352  .00000000  00000+0  00000-0 0  9996
2 10001  65.0000   0.0000 0000000   0.0000  36.0000  4.14196107    18
CTC1_L_00631001-03
1 10002U 25061JZ  26075.70039352  .00000000  00000+0  00000-0 0  9995
2 10002  65.0000   0.0000 0000000   0.0000  72.0000  4.14196107    19
CTC1_L_00631001-04
1 10003U 24701VF  26075.70039352  .00000000  00000+0  00000-0 0  9996
2 10003  65.0000   0.0000 0000000   0.0000 108.0000  4.14196107    10
CTC1_L_00631001-05
1 10004U 23433RI  26075.70039352  .00000000  00000+0  00000-0 0  9998
2 10004  65.0000   0.0000 0000000   0.0000 144.0000  4.14196107    11
CTC1_L_00631001-06
1 10005U 24760UX  26075.70039352  .00000000  00000+0  00000-0 0  9993
2 10005  65.0000   0.0000 0000000   0.0000 180.0000  4.14196107    12
CTC1_L_00631001-07
1 10006U 22590OQ  26075.70039352  .00000000  00000+0  00000-0 0  9993
2 10006  65.0000   0.0000 0000000   0.0000 216.0000  4.14196107    13
CTC1_L_00631001-08
1 10007U 26260HM  26075.70039352  .00000000  00000+0  00000-0 0  9992
2 10007  65.0000   0.0000 0000000   0.0000 252.0000  4.14196107    14
CTC1_L_00631001-09
1 10008U 24229ST  26075.70039352  .00000000  00000+0  00000-0 0  9996
2 10008  65.0000   0.0000 0000000   0.0000 288.0000  4.14196107    14
CTC1_L_00631001-10
1 10009U 23256HT  26075.70039352  .00000000  00000+0  00000-0 0  9996
2 10009  65.0000   0.0000 0000000   0.0000 324.0000  4.14196107    16
CTC1_L_00631002-01
1 10010U 23435FE  26075.70039352  .00000000  00000+0  00000-0 0  9997
2 10010  65.0000  30.0000 0000000   0.0000  12.0000  4.14196107    15
CTC1_L_00631002-02
1 10011U 26762CS  26075.70039352  .00000000  00000+0  00000-0 0  9994
2 10011  65.0000  30.0000 0000000   0.0000  48.0000  4.14196107    15
CTC1_L_00631002-03
1 10012U 26334GI  26075.70039352  .00000000  00000+0  00000-0 0  9990
2 10012  65.0000  30.0000 0000000   0.0000  84.0000  4.14196107    16
CTC1_L_00631002-04
1 10013U 25638II  26075.70039352  .00000000  00000+0  00000-0 0  9997
2 10013  65.0000  30.0000 0000000   0.0000 120.0000  4.14196107    18
CTC1_L_00631002-05
1 10014U 24502BI  26075.70039352  .00000000  00000+0  00000-0 0  9997
2 10014  65.0000  30.0000 0000000   0.0000 156.0000  4.14196107    18
CTC1_L_00631002-06
1 10015U 24987KG  26075.70039352  .00000000  00000+0  00000-0 0  9995
2 10015  65.0000  30.0000 0000000   0.0000 192.0000  4.14196107    19
CTC1_L_00631002-07
1 10016U 23616KF  26075.70039352  .00000000  00000+0  00000-0 0  9994
2 10016  65.0000  30.0000 0000000   0.0000 228.0000  4.14196107    10
CTC1_L_00631002-08
1 10017U 22226EO  26075.70039352  .00000000  00000+0  00000-0 0  9991
2 10017  65.0000  30.0000 0000000   0.0000 264.0000  4.14196107    11
CTC1_L_00631002-09
1 10018U 23406TB  26075.70039352  .00000000  00000+0  00000-0 0  9993
2 10018  65.0000  30.0000 0000000   0.0000 300.0000  4.14196107    13
CTC1_L_00631002-10
1 10019U 24136XM  26075.70039352  .00000000  00000+0  00000-0 0  9995
2 10019  65.0000  30.0000 0000000   0.0000 336.0000  4.14196107    13
CTC1_L_00631003-01
1 10020U 23541L   26075.70039352  .00000000  00000+0  00000-0 0  9996
2 10020  65.0000  60.0000 0000000   0.0000  24.0000  4.14196107    12
CTC1_L_00631003-02
1 10021U 26122RQ  26075.70039352  .00000000  00000+0  00000-0 0  9995
2 10021  65.0000  60.0000 0000000   0.0000  60.0000  4.14196107    13
CTC1_L_00631003-03
1 10022U 22953RK  26075.70039352  .00000000  00000+0  00000-0 0  9994
2 10022  65.0000  60.0000 0000000   0.0000  96.0000  4.14196107    13
CTC1_L_00631003-04
1 10023U 24879IZ  26075.70039352  .00000000  00000+0  00000-0 0  9994
2 10023  65.0000  60.0000 0000000   0.0000 132.0000  4.14196107    15
CTC1_L_00631003-05
1 10024U 24159JJ  26075.70039352  .00000000  00000+0  00000-0 0  9996
2 10024  65.0000  60.0000 0000000   0.0000 168.0000  4.14196107    15
CTC1_L_00631003-06
1 10025U 25864QR  26075.70039352  .00000000  00000+0  00000-0 0  9991
2 10025  65.0000  60.0000 0000000   0.0000 204.0000  4.14196107    17
CTC1_L_00631003-07
1 10026U 24026GC  26075.70039352  .00000000  00000+0  00000-0 0  9991
2 10026  65.0000  60.0000 0000000   0.0000 240.0000  4.14196107    18
CTC1_L_00631003-08
1 10027U 23572YC  26075.70039352  .00000000  00000+0  00000-0 0  9997
2 10027  65.0000  60.0000 0000000   0.0000 276.0000  4.14196107    18
CTC1_L_00631003-09
1 10028U 25232ZA  26075.70039352  .00000000  00000+0  00000-0 0  9993
2 10028  65.0000  60.0000 0000000   0.0000 312.0000  4.14196107    10
CTC1_L_00631003-10
1 10029U 22472YT  26075.70039352  .00000000  00000+0  00000-0 0  9997
2 10029  65.0000  60.0000 0000000   0.0000 348.0000  4.14196107    10
CTC1_L_00631004-01
1 10030U 22791JM  26075.70039352  .00000000  00000+0  00000-0 0  9993
2 10030  65.0000  90.0000 0000000   0.0000  36.0000  4.14196107    19
CTC1_L_00631004-02
1 10031U 24934IZ  26075.70039352  .00000000  00000+0  00000-0 0  9995
2 10031  65.0000  90.0000 0000000   0.0000  72.0000  4.14196107    10
CTC1_L_00631004-03
1 10032U 22429AU  26075.70039352  .00000000  00000+0  00000-0 0  9993
2 10032  65.0000  90.0000 0000000   0.0000 108.0000  4.14196107    11
CTC1_L_00631004-04
1 10033U 24351GW  26075.70039352  .00000000  00000+0  00000-0 0  9990
2 10033  65.0000  90.0000 0000000   0.0000 144.0000  4.14196107    12
CTC1_L_00631004-05
1 10034U 23683PH  26075.70039352  .00000000  00000+0  00000-0 0  9998
2 10034  65.0000  90.0000 0000000   0.0000 180.0000  4.14196107    13
CTC1_L_00631004-06
1 10035U 23694WE  26075.70039352  .00000000  00000+0  00000-0 0  9991
2 10035  65.0000  90.0000 0000000   0.0000 216.0000  4.14196107    14
CTC1_L_00631004-07
1 10036U 22861LS  26075.70039352  .00000000  00000+0  00000-0 0  9997
2 10036  65.0000  90.0000 0000000   0.0000 252.0000  4.14196107    15
CTC1_L_00631004-08
1 10037U 23732VC  26075.70039352  .00000000  00000+0  00000-0 0  9996
2 10037  65.0000  90.0000 0000000   0.0000 288.0000  4.14196107    15
CTC1_L_00631004-09
1 10038U 24025OB  26075.70039352  .00000000  00000+0  00000-0 0  9993
2 10038  65.0000  90.0000 0000000   0.0000 324.0000  4.14196107    17
CTC1_L_00631004-10
1 10039U 26387BQ  26075.70039352  .00000000  00000+0  00000-0 0  9997
2 10039  65.0000  90.0000 0000000   0.0000   0.0000  4.14196107    19
CTC1_L_00631005-01
1 10040U 23665XC  26075.70039352  .00000000  00000+0  00000-0 0  9995
2 10040  65.0000 120.0000 0000000   0.0000  48.0000  4.14196107    17
CTC1_L_00631005-02
1 10041U 23778FU  26075.70039352  .00000000  00000+0  00000-0 0  9991
2 10041  65.0000 120.0000 0000000   0.0000  84.0000  4.14196107    18
CTC1_L_00631005-03
1 10042U 25031TR  26075.70039352  .00000000  00000+0  00000-0 0  9996
2 10042  65.0000 120.0000 0000000   0.0000 120.0000  4.14196107    10
CTC1_L_00631005-04
1 10043U 23719VR  26075.70039352  .00000000  00000+0  00000-0 0  9998
2 10043  65.0000 120.0000 0000000   0.0000 156.0000  4.14196107    10
CTC1_L_00631005-05
1 10044U 22894VJ  26075.70039352  .00000000  00000+0  00000-0 0  9992
2 10044  65.0000 120.0000 0000000   0.0000 192.0000  4.14196107    11
CTC1_L_00631005-06
1 10045U 22216WR  26075.70039352  .00000000  00000+0  00000-0 0  9991
2 10045  65.0000 120.0000 0000000   0.0000 228.0000  4.14196107    12
CTC1_L_00631005-07
1 10046U 24229CW  26075.70039352  .00000000  00000+0  00000-0 0  9998
2 10046  65.0000 120.0000 0000000   0.0000 264.0000  4.14196107    13
CTC1_L_00631005-08
1 10047U 23823EM  26075.70039352  .00000000  00000+0  00000-0 0  9998
2 10047  65.0000 120.0000 0000000   0.0000 300.0000  4.14196107    15
CTC1_L_00631005-09
1 10048U 26334SB  26075.70039352  .00000000  00000+0  00000-0 0  9999
2 10048  65.0000 120.0000 0000000   0.0000 336.0000  4.14196107    15
CTC1_L_00631005-10
1 10049U 25349DF  26075.70039352  .00000000  00000+0  00000-0 0  9995
2 10049  65.0000 120.0000 0000000   0.0000  12.0000  4.14196107    17
CTC1_L_00631006-01
1 10050U 25451YO  26075.70039352  .00000000  00000+0  00000-0 0  9991
2 10050  65.0000 150.0000 0000000   0.0000  60.0000  4.14196107    15
CTC1_L_00631006-02
1 10051U 25255ZA  26075.70039352  .00000000  00000+0  00000-0 0  9994
2 10051  65.0000 150.0000 0000000   0.0000  96.0000  4.14196107    15
CTC1_L_00631006-03
1 10052U 25660AB  26075.70039352  .00000000  00000+0  00000-0 0  9995
2 10052  65.0000 150.0000 0000000   0.0000 132.0000  4.14196107    17
CTC1_L_00631006-04
1 10053U 22974AC  26075.70039352  .00000000  00000+0  00000-0 0  9991
2 10053  65.0000 150.0000 0000000   0.0000 168.0000  4.14196107    17
CTC1_L_00631006-05
1 10054U 25251FY  26075.70039352  .00000000  00000+0  00000-0 0  9993
2 10054  65.0000 150.0000 0000000   0.0000 204.0000  4.14196107    19
CTC1_L_00631006-06
1 10055U 26239JN  26075.70039352  .00000000  00000+0  00000-0 0  9991
2 10055  65.0000 150.0000 0000000   0.0000 240.0000  4.14196107    10
CTC1_L_00631006-07
1 10056U 23800ZI  26075.70039352  .00000000  00000+0  00000-0 0  9993
2 10056  65.0000 150.0000 0000000   0.0000 276.0000  4.14196107    10
CTC1_L_00631006-08
1 10057U 25089NF  26075.70039352  .00000000  00000+0  00000-0 0  9995
2 10057  65.0000 150.0000 0000000   0.0000 312.0000  4.14196107    12
CTC1_L_00631006-09
1 10058U 23640OV  26075.70039352  .00000000  00000+0  00000-0 0  9997
2 10058  65.0000 150.0000 0000000   0.0000 348.0000  4.14196107    12
CTC1_L_00631006-10
1 10059U 25654JT  26075.70039352  .00000000  00000+0  00000-0 0  9995
2 10059  65.0000 150.0000 0000000   0.0000  24.0000  4.14196107    14
CTC1_L_00631007-01
1 10060U 25514JI  26075.70039352  .00000000  00000+0  00000-0 0  9992
2 10060  65.0000 180.0000 0000000   0.0000  72.0000  4.14196107    12
CTC1_L_00631007-02
1 10061U 23472H   26075.70039352  .00000000  00000+0  00000-0 0  9994
2 10061  65.0000 180.0000 0000000   0.0000 108.0000  4.14196107    13
